GLOBALSTAR M094         
1 39074U 13005C   24312.54064139 -.00000088  00000+0  90792-4 0  9993
2 39074  51.9930 136.9645 0001210 104.9977 255.1024 12.62265243544383
GLOBALSTAR M096         
1 39075U 13005D   24312.79135993 -.00000068  00000+0  20181-3 0  9990
2 39075  52.0056 184.5441 0001196  89.2345 270.8659 12.62264464543689
GLOBALSTAR M078         
1 39076U 13005E   24312.60614981 -.00000044  00000+0  33293-3 0  9992
2 39076  51.9872 269.9150 0001520  56.5743 303.5269 12.62265879541937
GLOBALSTAR M095         
1 39077U 13005F   24312.79139651 -.00000059  00000+0  24956-3 0  9991
2 39077  51.9797 266.6609 0001167  72.1995 287.8998 12.62267601542172
GLOBALSTAR M087         
1 52888U 22064A   24312.57571316 -.00000054  00000+0  14057-3 0  9991
2 52888  51.9763  68.3821 0009261  13.0883 347.0256 13.37592845116713
